STARLINK-31087          
1 58597U 23200J   26067.67929479  .00001444  00000+0  63485-4 0  9997
2 58597  42.9986 173.9308 0000913 268.8991  91.1755 15.26741848123359
OTTER                   
1 62623U 25009Q   26068.72300813  .00012198  00000+0  45151-3 0  9990
2 62623  97.4065 151.3812 0003573 310.7710  49.3219 15.27809545 63722
